CCSDS_OMM_VERS = 2.0
CREATION_DATE  = 
ORIGINATOR     = 

OBJECT_NAME    = KUIPER-00215
OBJECT_ID      = 2026-030R
CENTER_NAME    = EARTH
REF_FRAME      = TEME
TIME_SYSTEM    = UTC
MEAN_ELEMENT_THEORY = SGP/SGP4

EPOCH          = 2026-02-26T17:00:26.152128
MEAN_MOTION    = 15.33943293
ECCENTRICITY   = .0009853
INCLINATION    = 51.8849
RA_OF_ASC_NODE = 272.2214
ARG_OF_PERICENTER = 28.5916
MEAN_ANOMALY   = 331.5608

EPHEMERIS_TYPE = 0
CLASSIFICATION_TYPE = U
NORAD_CAT_ID   = 67779
ELEMENT_SET_NO = 999
REV_AT_EPOCH   = 340
BSTAR          = .56215E-3
MEAN_MOTION_DOT = .1843E-3
MEAN_MOTION_DDOT = 0

CCSDS_OMM_VERS = 2.0
CREATION_DATE  = 
ORIGINATOR     = 

OBJECT_NAME    = KUIPER-00218
OBJECT_ID      = 2026-030S
CENTER_NAME    = EARTH
REF_FRAME      = TEME
TIME_SYSTEM    = UTC
MEAN_ELEMENT_THEORY = SGP/SGP4

EPOCH          = 2026-02-26T16:51:19.541664
MEAN_MOTION    = 15.34721781
ECCENTRICITY   = .0006428
INCLINATION    = 51.8838
RA_OF_ASC_NODE = 272.1783
ARG_OF_PERICENTER = 24.2697
MEAN_ANOMALY   = 335.8590

EPHEMERIS_TYPE = 0
CLASSIFICATION_TYPE = U
NORAD_CAT_ID   = 67780
ELEMENT_SET_NO = 999
REV_AT_EPOCH   = 340
BSTAR          = .55115E-3
MEAN_MOTION_DOT = .18506E-3
MEAN_MOTION_DDOT = 0

CCSDS_OMM_VERS = 2.0
CREATION_DATE  = 
ORIGINATOR     = 

OBJECT_NAME    = KUIPER-00220
OBJECT_ID      = 2026-030T
CENTER_NAME    = EARTH
REF_FRAME      = TEME
TIME_SYSTEM    = UTC
MEAN_ELEMENT_THEORY = SGP/SGP4

EPOCH          = 2026-02-26T16:57:18.125856
MEAN_MOTION    = 15.34234965
ECCENTRICITY   = .0008046
INCLINATION    = 51.8818
RA_OF_ASC_NODE = 272.2004
ARG_OF_PERICENTER = 26.0869
MEAN_ANOMALY   = 334.0521

EPHEMERIS_TYPE = 0
CLASSIFICATION_TYPE = U
NORAD_CAT_ID   = 67781
ELEMENT_SET_NO = 999
REV_AT_EPOCH   = 340
BSTAR          = .55656E-3
MEAN_MOTION_DOT = .18407E-3
MEAN_MOTION_DDOT = 0

CCSDS_OMM_VERS = 2.0
CREATION_DATE  = 
ORIGINATOR     = 

OBJECT_NAME    = KUIPER-00222
OBJECT_ID      = 2026-030U
CENTER_NAME    = EARTH
REF_FRAME      = TEME
TIME_SYSTEM    = UTC
MEAN_ELEMENT_THEORY = SGP/SGP4

EPOCH          = 2026-02-26T17:16:44.963904
MEAN_MOTION    = 15.32525112
ECCENTRICITY   = .0017315
INCLINATION    = 51.8818
RA_OF_ASC_NODE = 272.2859
ARG_OF_PERICENTER = 31.5164
MEAN_ANOMALY   = 328.6854

EPHEMERIS_TYPE = 0
CLASSIFICATION_TYPE = U
NORAD_CAT_ID   = 67782
ELEMENT_SET_NO = 999
REV_AT_EPOCH   = 340
BSTAR          = .79298E-3
MEAN_MOTION_DOT = .25098E-3
MEAN_MOTION_DDOT = 0

CCSDS_OMM_VERS = 2.0
CREATION_DATE  = 
ORIGINATOR     = 

OBJECT_NAME    = KUIPER-00223
OBJECT_ID      = 2026-030V
CENTER_NAME    = EARTH
REF_FRAME      = TEME
TIME_SYSTEM    = UTC
MEAN_ELEMENT_THEORY = SGP/SGP4

EPOCH          = 2026-02-26T17:03:54.008064
MEAN_MOTION    = 15.33740425
ECCENTRICITY   = .0012128
INCLINATION    = 51.8838
RA_OF_ASC_NODE = 272.2335
ARG_OF_PERICENTER = 28.2277
MEAN_ANOMALY   = 331.9364

EPHEMERIS_TYPE = 0
CLASSIFICATION_TYPE = U
NORAD_CAT_ID   = 67783
ELEMENT_SET_NO = 999
REV_AT_EPOCH   = 340
BSTAR          = .61172E-3
MEAN_MOTION_DOT = .19977E-3
MEAN_MOTION_DDOT = 0

CCSDS_OMM_VERS = 2.0
CREATION_DATE  = 
ORIGINATOR     = 

OBJECT_NAME    = KUIPER-00225
OBJECT_ID      = 2026-030W
CENTER_NAME    = EARTH
REF_FRAME      = TEME
TIME_SYSTEM    = UTC
MEAN_ELEMENT_THEORY = SGP/SGP4

EPOCH          = 2026-02-26T18:16:30.967392
MEAN_MOTION    = 15.35367913
ECCENTRICITY   = .0003606
INCLINATION    = 51.8808
RA_OF_ASC_NODE = 271.8228
ARG_OF_PERICENTER = 15.6880
MEAN_ANOMALY   = 344.4217

EPHEMERIS_TYPE = 0
CLASSIFICATION_TYPE = U
NORAD_CAT_ID   = 67784
ELEMENT_SET_NO = 999
REV_AT_EPOCH   = 341
BSTAR          = .58212E-3
MEAN_MOTION_DOT = .19978E-3
MEAN_MOTION_DDOT = 0

CCSDS_OMM_VERS = 2.0
CREATION_DATE  = 
ORIGINATOR     = 

OBJECT_NAME    = KUIPER-00226
OBJECT_ID      = 2026-030X
CENTER_NAME    = EARTH
REF_FRAME      = TEME
TIME_SYSTEM    = UTC
MEAN_ELEMENT_THEORY = SGP/SGP4

EPOCH          = 2026-02-26T17:26:35.882016
MEAN_MOTION    = 15.31446359
ECCENTRICITY   = .0019541
INCLINATION    = 51.8826
RA_OF_ASC_NODE = 272.3305
ARG_OF_PERICENTER = 37.5398
MEAN_ANOMALY   = 322.6947

EPHEMERIS_TYPE = 0
CLASSIFICATION_TYPE = U
NORAD_CAT_ID   = 67785
ELEMENT_SET_NO = 999
REV_AT_EPOCH   = 340
BSTAR          = .90075E-3
MEAN_MOTION_DOT = .27645E-3
MEAN_MOTION_DDOT = 0

CCSDS_OMM_VERS = 2.0
CREATION_DATE  = 
ORIGINATOR     = 

OBJECT_NAME    = KUIPER-00259
OBJECT_ID      = 2026-030Y
CENTER_NAME    = EARTH
REF_FRAME      = TEME
TIME_SYSTEM    = UTC
MEAN_ELEMENT_THEORY = SGP/SGP4

EPOCH          = 2026-02-26T16:53:27.419712
MEAN_MOTION    = 15.34556667
ECCENTRICITY   = .000789
INCLINATION    = 51.8816
RA_OF_ASC_NODE = 272.1838
ARG_OF_PERICENTER = 19.0771
MEAN_ANOMALY   = 341.0509

EPHEMERIS_TYPE = 0
CLASSIFICATION_TYPE = U
NORAD_CAT_ID   = 67786
ELEMENT_SET_NO = 999
REV_AT_EPOCH   = 340
BSTAR          = .66573E-3
MEAN_MOTION_DOT = .22332E-3
MEAN_MOTION_DDOT = 0

CCSDS_OMM_VERS = 2.0
CREATION_DATE  = 
ORIGINATOR     = 

OBJECT_NAME    = KUIPER-00260
OBJECT_ID      = 2026-030Z
CENTER_NAME    = EARTH
REF_FRAME      = TEME
TIME_SYSTEM    = UTC
MEAN_ELEMENT_THEORY = SGP/SGP4

EPOCH          = 2026-02-26T18:08:56.194944
MEAN_MOTION    = 15.35911303
ECCENTRICITY   = .0001163
INCLINATION    = 51.8793
RA_OF_ASC_NODE = 271.7882
ARG_OF_PERICENTER = 86.6152
MEAN_ANOMALY   = 273.4967

EPHEMERIS_TYPE = 0
CLASSIFICATION_TYPE = U
NORAD_CAT_ID   = 67787
ELEMENT_SET_NO = 999
REV_AT_EPOCH   = 332
BSTAR          = .61902E-3
MEAN_MOTION_DOT = .21649E-3
MEAN_MOTION_DDOT = 0

CCSDS_OMM_VERS = 2.0
CREATION_DATE  = 
ORIGINATOR     = 

OBJECT_NAME    = KUIPER-00262
OBJECT_ID      = 2026-030AA
CENTER_NAME    = EARTH
REF_FRAME      = TEME
TIME_SYSTEM    = UTC
MEAN_ELEMENT_THEORY = SGP/SGP4

EPOCH          = 2026-02-26T18:05:48.172128
MEAN_MOTION    = 15.36218991
ECCENTRICITY   = .0001265
INCLINATION    = 51.8808
RA_OF_ASC_NODE = 271.7772
ARG_OF_PERICENTER = 129.6960
MEAN_ANOMALY   = 230.4138

EPHEMERIS_TYPE = 0
CLASSIFICATION_TYPE = U
NORAD_CAT_ID   = 67788
ELEMENT_SET_NO = 999
REV_AT_EPOCH   = 341
BSTAR          = .81415E-3
MEAN_MOTION_DOT = .28909E-3
MEAN_MOTION_DDOT = 0

CCSDS_OMM_VERS = 2.0
CREATION_DATE  = 
ORIGINATOR     = 

OBJECT_NAME    = KUIPER-00266
OBJECT_ID      = 2026-030AB
CENTER_NAME    = EARTH
REF_FRAME      = TEME
TIME_SYSTEM    = UTC
MEAN_ELEMENT_THEORY = SGP/SGP4

EPOCH          = 2026-02-26T17:30:43.264224
MEAN_MOTION    = 15.30983915
ECCENTRICITY   = .0022349
INCLINATION    = 51.8813
RA_OF_ASC_NODE = 272.3465
ARG_OF_PERICENTER = 39.2962
MEAN_ANOMALY   = 320.9639

EPHEMERIS_TYPE = 0
CLASSIFICATION_TYPE = U
NORAD_CAT_ID   = 67789
ELEMENT_SET_NO = 999
REV_AT_EPOCH   = 340
BSTAR          = .584E-3
MEAN_MOTION_DOT = .1754E-3
MEAN_MOTION_DDOT = 0

CCSDS_OMM_VERS = 2.0
CREATION_DATE  = 
ORIGINATOR     = 

OBJECT_NAME    = KUIPER-00268
OBJECT_ID      = 2026-030AC
CENTER_NAME    = EARTH
REF_FRAME      = TEME
TIME_SYSTEM    = UTC
MEAN_ELEMENT_THEORY = SGP/SGP4

EPOCH          = 2026-02-26T16:39:57.335904
MEAN_MOTION    = 15.35552434
ECCENTRICITY   = .0001794
INCLINATION    = 51.8840
RA_OF_ASC_NODE = 272.1300
ARG_OF_PERICENTER = 28.2514
MEAN_ANOMALY   = 331.8569

EPHEMERIS_TYPE = 0
CLASSIFICATION_TYPE = U
NORAD_CAT_ID   = 67790
ELEMENT_SET_NO = 999
REV_AT_EPOCH   = 340
BSTAR          = .10457E-2
MEAN_MOTION_DOT = .36483E-3
MEAN_MOTION_DDOT = 0

