KUIPER-00215            
1 67779U 26030R   26057.70863602  .00018430  00000+0  56215-3 0  9996
2 67779  51.8849 272.2214 0009853  28.5916 331.5608 15.33943293  3404
KUIPER-00218            
1 67780U 26030S   26057.70230951  .00018506  00000+0  55115-3 0  9995
2 67780  51.8838 272.1783 0006428  24.2697 335.8590 15.34721781  3402
KUIPER-00220            
1 67781U 26030T   26057.70645979  .00018407  00000+0  55656-3 0  9996
2 67781  51.8818 272.2004 0008046  26.0869 334.0521 15.34234965  3405
KUIPER-00222            
1 67782U 26030U   26057.71996486  .00025098  00000+0  79298-3 0  9992
2 67782  51.8818 272.2859 0017315  31.5164 328.6854 15.32525112  3405
KUIPER-00223            
1 67783U 26030V   26057.71104176  .00019977  00000+0  61172-3 0  9991
2 67783  51.8838 272.2335 0012128  28.2277 331.9364 15.33740425  3402
KUIPER-00225            
1 67784U 26030W   26057.76146953  .00019978  00000+0  58212-3 0  9998
2 67784  51.8808 271.8228 0003606  15.6880 344.4217 15.35367913  3413
KUIPER-00226            
1 67785U 26030X   26057.72680419  .00027645  00000+0  90075-3 0  9998
2 67785  51.8826 272.3305 0019541  37.5398 322.6947 15.31446359  3403
KUIPER-00259            
1 67786U 26030Y   26057.70378958  .00022332  00000+0  66573-3 0  9993
2 67786  51.8816 272.1838 0007890  19.0771 341.0509 15.34556667  3402
KUIPER-00260            
1 67787U 26030Z   26057.75620596  .00021649  00000+0  61902-3 0  9998
2 67787  51.8793 271.7882 0001163  86.6152 273.4967 15.35911303  3321
KUIPER-00262            
1 67788U 26030AA  26057.75402977  .00028909  00000+0  81415-3 0  9997
2 67788  51.8808 271.7772 0001265 129.6960 230.4138 15.36218991  3412
KUIPER-00266            
1 67789U 26030AB  26057.72966741  .00017540  00000+0  58400-3 0  9996
2 67789  51.8813 272.3465 0022349  39.2962 320.9639 15.30983915  3408
KUIPER-00268            
1 67790U 26030AC  26057.69441361  .00036483  00000+0  10457-2 0  9996
2 67790  51.8840 272.1300 0001794  28.2514 331.8569 15.35552434  3404
